STARLINK-37028          
1 68270U 26055J   26098.28574084  .00213081  00000+0  10529-2 0  9997
2 68270  53.1577 188.8944 0001283  85.1497 274.9672 15.80951489  4363
STARLINK-37029          
1 68271U 26055K   26098.28648988  .00273796  00000+0  13410-2 0  9994
2 68271  53.1575 188.8996 0001291  58.7762 301.3387 15.80973336  4362
STARLINK-36974          
1 68272U 26055L   26098.28499226  .00266945  00000+0  13088-2 0  9993
2 68272  53.1577 188.8891 0001082  97.9483 262.1663 15.80969324  4365
STARLINK-37019          
1 68273U 26055M   26098.28424118  .00215234  00000+0  10632-2 0  9999
2 68273  53.1578 188.8832 0001157 115.0874 245.0269 15.80951334  4365
STARLINK-37129          
1 68274U 26055N   26098.28349091  .00219809  00000+0  10848-2 0  9997
2 68274  53.1579 188.8785 0001130  94.8050 265.3102 15.80959192  4366
STARLINK-37123          
1 68275U 26055P   26098.28273902  .00210481  00000+0  10403-2 0  9999
2 68275  53.1580 188.8738 0001352  90.5641 269.5536 15.80952741  4362
STARLINK-37125          
1 68276U 26055Q   26098.28199183  .00239009  00000+0  11767-2 0  9999
2 68276  53.1578 188.8682 0000937  74.4206 285.6921 15.80956912  4365
STARLINK-36989          
1 68277U 26055R   26098.27973899  .00274527  00000+0  13442-2 0  9999
2 68277  53.1578 188.8528 0001126 103.0626 257.0523 15.80977639  4361
STARLINK-36982          
1 68278U 26055S   26098.28049041  .00228084  00000+0  11245-2 0  9990
2 68278  53.1578 188.8587 0001246  87.7847 272.3318 15.80956281  4365
STARLINK-36934          
1 68279U 26055T   26098.28123966  .00261709  00000+0  12836-2 0  9998
2 68279  53.1579 188.8641 0001158  76.5955 283.5197 15.80975092  4366
STARLINK-37070          
1 68280U 26055U   26098.27898975  .00246076  00000+0  12102-2 0  9994
2 68280  53.1581 188.8481 0001670 132.2639 227.8526 15.80960939  4362
STARLINK-37134          
1 68281U 26055V   26098.27749344  .00288138  00000+0  14090-2 0  9993
2 68281  53.1578 188.8374 0001139 115.5715 244.5425 15.80967909  4367
STARLINK-37160          
1 68282U 26055W   26098.27823949  .00267691  00000+0  13122-2 0  9994
2 68282  53.1578 188.8433 0001190 107.3358 252.7795 15.80971917  4368
STARLINK-37124          
1 68283U 26055X   26098.27672899  .00312356  00000+0  15122-2 0  9992
2 68283  53.1579 188.8334 0001343  79.3643 280.7531 15.81121036  4364
STARLINK-37159          
1 68284U 26055Y   26098.27598817  .00302013  00000+0  14729-2 0  9991
2 68284  53.1577 188.8279 0000951  97.0795 263.0336 15.80988405  4367
STARLINK-36725          
1 68285U 26055Z   26098.27523798  .00304586  00000+0  14848-2 0  9997
2 68285  53.1578 188.8221 0001899 132.8256 227.2927 15.80991524  4362
