[{"OBJECT_NAME":"STARLINK-37028","OBJECT_ID":"2026-055J","EPOCH":"2026-04-08T06:51:28.008576","MEAN_MOTION":15.80951489,"ECCENTRICITY":0.00012839,"INCLINATION":53.1577,"RA_OF_ASC_NODE":188.8944,"ARG_OF_PERICENTER":85.1497,"MEAN_ANOMALY":274.9672,"EPHEMERIS_TYPE":0,"CLASSIFICATION_TYPE":"U","NORAD_CAT_ID":68270,"ELEMENT_SET_NO":999,"REV_AT_EPOCH":436,"BSTAR":0.0010528728,"MEAN_MOTION_DOT":0.00213081,"MEAN_MOTION_DDOT":0},{"OBJECT_NAME":"STARLINK-37029","OBJECT_ID":"2026-055K","EPOCH":"2026-04-08T06:52:32.725632","MEAN_MOTION":15.80973336,"ECCENTRICITY":0.00012917,"INCLINATION":53.1575,"RA_OF_ASC_NODE":188.8996,"ARG_OF_PERICENTER":58.7762,"MEAN_ANOMALY":301.3387,"EPHEMERIS_TYPE":0,"CLASSIFICATION_TYPE":"U","NORAD_CAT_ID":68271,"ELEMENT_SET_NO":999,"REV_AT_EPOCH":436,"BSTAR":0.0013409907,"MEAN_MOTION_DOT":0.00273796,"MEAN_MOTION_DDOT":0},{"OBJECT_NAME":"STARLINK-36974","OBJECT_ID":"2026-055L","EPOCH":"2026-04-08T06:50:23.331264","MEAN_MOTION":15.80969324,"ECCENTRICITY":0.0001082,"INCLINATION":53.1577,"RA_OF_ASC_NODE":188.8891,"ARG_OF_PERICENTER":97.9483,"MEAN_ANOMALY":262.1663,"EPHEMERIS_TYPE":0,"CLASSIFICATION_TYPE":"U","NORAD_CAT_ID":68272,"ELEMENT_SET_NO":999,"REV_AT_EPOCH":436,"BSTAR":0.0013088058,"MEAN_MOTION_DOT":0.00266945,"MEAN_MOTION_DDOT":0},{"OBJECT_NAME":"STARLINK-37019","OBJECT_ID":"2026-055M","EPOCH":"2026-04-08T06:49:18.437952","MEAN_MOTION":15.80951334,"ECCENTRICITY":0.0001157,"INCLINATION":53.1578,"RA_OF_ASC_NODE":188.8832,"ARG_OF_PERICENTER":115.0874,"MEAN_ANOMALY":245.0269,"EPHEMERIS_TYPE":0,"CLASSIFICATION_TYPE":"U","NORAD_CAT_ID":68273,"ELEMENT_SET_NO":999,"REV_AT_EPOCH":436,"BSTAR":0.0010632163,"MEAN_MOTION_DOT":0.00215234,"MEAN_MOTION_DDOT":0},{"OBJECT_NAME":"STARLINK-37129","OBJECT_ID":"2026-055N","EPOCH":"2026-04-08T06:48:13.614624","MEAN_MOTION":15.80959192,"ECCENTRICITY":0.00011305,"INCLINATION":53.1579,"RA_OF_ASC_NODE":188.8785,"ARG_OF_PERICENTER":94.805,"MEAN_ANOMALY":265.3102,"EPHEMERIS_TYPE":0,"CLASSIFICATION_TYPE":"U","NORAD_CAT_ID":68274,"ELEMENT_SET_NO":999,"REV_AT_EPOCH":436,"BSTAR":0.00108477,"MEAN_MOTION_DOT":0.00219809,"MEAN_MOTION_DDOT":0},{"OBJECT_NAME":"STARLINK-37123","OBJECT_ID":"2026-055P","EPOCH":"2026-04-08T06:47:08.651328","MEAN_MOTION":15.80952741,"ECCENTRICITY":0.00013525,"INCLINATION":53.158,"RA_OF_ASC_NODE":188.8738,"ARG_OF_PERICENTER":90.5641,"MEAN_ANOMALY":269.5536,"EPHEMERIS_TYPE":0,"CLASSIFICATION_TYPE":"U","NORAD_CAT_ID":68275,"ELEMENT_SET_NO":999,"REV_AT_EPOCH":436,"BSTAR":0.0010403218,"MEAN_MOTION_DOT":0.00210481,"MEAN_MOTION_DDOT":0},{"OBJECT_NAME":"STARLINK-37125","OBJECT_ID":"2026-055Q","EPOCH":"2026-04-08T06:46:04.094112","MEAN_MOTION":15.80956912,"ECCENTRICITY":9.378e-5,"INCLINATION":53.1578,"RA_OF_ASC_NODE":188.8682,"ARG_OF_PERICENTER":74.4206,"MEAN_ANOMALY":285.6921,"EPHEMERIS_TYPE":0,"CLASSIFICATION_TYPE":"U","NORAD_CAT_ID":68276,"ELEMENT_SET_NO":999,"REV_AT_EPOCH":436,"BSTAR":0.0011767005,"MEAN_MOTION_DOT":0.00239009,"MEAN_MOTION_DDOT":0},{"OBJECT_NAME":"STARLINK-36989","OBJECT_ID":"2026-055R","EPOCH":"2026-04-08T06:42:49.448736","MEAN_MOTION":15.80977639,"ECCENTRICITY":0.00011269,"INCLINATION":53.1578,"RA_OF_ASC_NODE":188.8528,"ARG_OF_PERICENTER":103.0626,"MEAN_ANOMALY":257.0523,"EPHEMERIS_TYPE":0,"CLASSIFICATION_TYPE":"U","NORAD_CAT_ID":68277,"ELEMENT_SET_NO":999,"REV_AT_EPOCH":436,"BSTAR":0.0013441785,"MEAN_MOTION_DOT":0.00274527,"MEAN_MOTION_DDOT":0},{"OBJECT_NAME":"STARLINK-36982","OBJECT_ID":"2026-055S","EPOCH":"2026-04-08T06:43:54.371424","MEAN_MOTION":15.80956281,"ECCENTRICITY":0.00012464,"INCLINATION":53.1578,"RA_OF_ASC_NODE":188.8587,"ARG_OF_PERICENTER":87.7847,"MEAN_ANOMALY":272.3318,"EPHEMERIS_TYPE":0,"CLASSIFICATION_TYPE":"U","NORAD_CAT_ID":68278,"ELEMENT_SET_NO":999,"REV_AT_EPOCH":436,"BSTAR":0.0011245432,"MEAN_MOTION_DOT":0.00228084,"MEAN_MOTION_DDOT":0},{"OBJECT_NAME":"STARLINK-36934","OBJECT_ID":"2026-055T","EPOCH":"2026-04-08T06:44:59.106624","MEAN_MOTION":15.80975092,"ECCENTRICITY":0.00011587,"INCLINATION":53.1579,"RA_OF_ASC_NODE":188.8641,"ARG_OF_PERICENTER":76.5955,"MEAN_ANOMALY":283.5197,"EPHEMERIS_TYPE":0,"CLASSIFICATION_TYPE":"U","NORAD_CAT_ID":68279,"ELEMENT_SET_NO":999,"REV_AT_EPOCH":436,"BSTAR":0.0012836491,"MEAN_MOTION_DOT":0.00261709,"MEAN_MOTION_DDOT":0},{"OBJECT_NAME":"STARLINK-37070","OBJECT_ID":"2026-055U","EPOCH":"2026-04-08T06:41:44.714400","MEAN_MOTION":15.80960939,"ECCENTRICITY":0.00016709,"INCLINATION":53.1581,"RA_OF_ASC_NODE":188.8481,"ARG_OF_PERICENTER":132.2639,"MEAN_ANOMALY":227.8526,"EPHEMERIS_TYPE":0,"CLASSIFICATION_TYPE":"U","NORAD_CAT_ID":68280,"ELEMENT_SET_NO":999,"REV_AT_EPOCH":436,"BSTAR":0.0012101707,"MEAN_MOTION_DOT":0.00246076,"MEAN_MOTION_DDOT":0},{"OBJECT_NAME":"STARLINK-37134","OBJECT_ID":"2026-055V","EPOCH":"2026-04-08T06:39:35.433216","MEAN_MOTION":15.80967909,"ECCENTRICITY":0.00011391,"INCLINATION":53.1578,"RA_OF_ASC_NODE":188.8374,"ARG_OF_PERICENTER":115.5715,"MEAN_ANOMALY":244.5425,"EPHEMERIS_TYPE":0,"CLASSIFICATION_TYPE":"U","NORAD_CAT_ID":68281,"ELEMENT_SET_NO":999,"REV_AT_EPOCH":436,"BSTAR":0.0014090395,"MEAN_MOTION_DOT":0.00288138,"MEAN_MOTION_DDOT":0},{"OBJECT_NAME":"STARLINK-37160","OBJECT_ID":"2026-055W","EPOCH":"2026-04-08T06:40:39.891936","MEAN_MOTION":15.80971917,"ECCENTRICITY":0.00011905,"INCLINATION":53.1578,"RA_OF_ASC_NODE":188.8433,"ARG_OF_PERICENTER":107.3358,"MEAN_ANOMALY":252.7795,"EPHEMERIS_TYPE":0,"CLASSIFICATION_TYPE":"U","NORAD_CAT_ID":68282,"ELEMENT_SET_NO":999,"REV_AT_EPOCH":436,"BSTAR":0.0013121873,"MEAN_MOTION_DOT":0.00267691,"MEAN_MOTION_DDOT":0},{"OBJECT_NAME":"STARLINK-37124","OBJECT_ID":"2026-055X","EPOCH":"2026-04-08T06:38:29.384736","MEAN_MOTION":15.81121036,"ECCENTRICITY":0.00013438,"INCLINATION":53.1579,"RA_OF_ASC_NODE":188.8334,"ARG_OF_PERICENTER":79.3643,"MEAN_ANOMALY":280.7531,"EPHEMERIS_TYPE":0,"CLASSIFICATION_TYPE":"U","NORAD_CAT_ID":68283,"ELEMENT_SET_NO":999,"REV_AT_EPOCH":436,"BSTAR":0.0015121746,"MEAN_MOTION_DOT":0.00312356,"MEAN_MOTION_DDOT":0},{"OBJECT_NAME":"STARLINK-37159","OBJECT_ID":"2026-055Y","EPOCH":"2026-04-08T06:37:25.377888","MEAN_MOTION":15.80988405,"ECCENTRICITY":9.519e-5,"INCLINATION":53.1577,"RA_OF_ASC_NODE":188.8279,"ARG_OF_PERICENTER":97.0795,"MEAN_ANOMALY":263.0336,"EPHEMERIS_TYPE":0,"CLASSIFICATION_TYPE":"U","NORAD_CAT_ID":68284,"ELEMENT_SET_NO":999,"REV_AT_EPOCH":436,"BSTAR":0.0014729246,"MEAN_MOTION_DOT":0.00302013,"MEAN_MOTION_DDOT":0},{"OBJECT_NAME":"STARLINK-36725","OBJECT_ID":"2026-055Z","EPOCH":"2026-04-08T06:36:20.561472","MEAN_MOTION":15.80991524,"ECCENTRICITY":0.00018997,"INCLINATION":53.1578,"RA_OF_ASC_NODE":188.8221,"ARG_OF_PERICENTER":132.8256,"MEAN_ANOMALY":227.2927,"EPHEMERIS_TYPE":0,"CLASSIFICATION_TYPE":"U","NORAD_CAT_ID":68285,"ELEMENT_SET_NO":999,"REV_AT_EPOCH":436,"BSTAR":0.0014848078,"MEAN_MOTION_DOT":0.00304586,"MEAN_MOTION_DDOT":0}]
